[
    {
        "id" : "1",
        "description" : "A lovely home",
        "city" : "Bratislava",
        "zip" : "1111",
        "street" : "Shitgade",
        "housenr" : "123",
        "imgURL" : "https://i.ytimg.com/vi/Xx6t0gmQ_Tw/maxresdefault.jpg",
        "rentable" : false,
        "rating" : 1,
        "idUser" : 1,
        "latitude" : "",
        "longitude" : ""
      },
     {
      "id" : "1",
      "description" : "A lovely home",
      "city" : "Bratislava",
      "zip" : "1111",
      "street" : "Shitgade",
      "housenr" : "123",
      "imgURL" : "https://i.ytimg.com/vi/Xx6t0gmQ_Tw/maxresdefault.jpg",
      "rentable" : false,
      "rating" : 2,
      "idUser" : 1,
      "latitude" : "",
      "longitude" : ""
    },
    {
     "id" : "1",
     "description" : "A lovely home",
     "city" : "Bratislava",
     "zip" : "1111",
     "street" : "Shitgade",
     "housenr" : "123",
     "imgURL" : "https://i.ytimg.com/vi/Xx6t0gmQ_Tw/maxresdefault.jpg",
     "rentable" : false,
     "rating" : 3,
     "idUser" : 1,
     "latitude" : "",
     "longitude" : ""
   },
   {
    "id" : "1",
    "description" : "A lovely home",
    "city" : "Bratislava",
    "zip" : "1111",
    "street" : "Shitgade",
    "housenr" : "123",
    "imgURL" : "https://i.ytimg.com/vi/Xx6t0gmQ_Tw/maxresdefault.jpg",
    "rentable" : false,
    "rating" : 4,
    "idUser" : 1,
    "latitude" : "",
    "longitude" : ""
  },
  {
   "id" : "1",
   "description" : "A lovely home",
   "city" : "Bratislava",
   "zip" : "1111",
   "street" : "Shitgade",
   "housenr" : "123",
   "imgURL" : "https://i.ytimg.com/vi/Xx6t0gmQ_Tw/maxresdefault.jpg",
   "rentable" : false,
   "rating" : 5,
   "idUser" : 1,
   "latitude" : "",
   "longitude" : ""
 },
 {
  "id" : "1",
  "description" : "A lovely home",
  "city" : "Bratislava",
  "zip" : "1111",
  "street" : "Shitgade",
  "housenr" : "123",
  "imgURL" : "https://i.ytimg.com/vi/Xx6t0gmQ_Tw/maxresdefault.jpg",
  "rentable" : false,
  "rating" : 4,
  "idUser" : 1,
  "latitude" : "",
  "longitude" : ""
},
{
 "id" : "1",
 "description" : "A lovely home",
 "city" : "Bratislava",
 "zip" : "1111",
 "street" : "Shitgade",
 "housenr" : "123",
 "imgURL" : "https://i.ytimg.com/vi/Xx6t0gmQ_Tw/maxresdefault.jpg",
 "rentable" : false,
 "rating" : 3,
 "idUser" : 1,
 "latitude" : "",
 "longitude" : ""
},
{
 "id" : "1",
 "description" : "A lovely home",
 "city" : "Bratislava",
 "zip" : "1111",
 "street" : "Shitgade",
 "housenr" : "123",
 "imgURL" : "https://i.ytimg.com/vi/Xx6t0gmQ_Tw/maxresdefault.jpg",
 "rentable" : false,
 "rating" : 2,
 "idUser" : 1,
 "latitude" : "",
 "longitude" : ""
},
{
 "id" : "1",
 "description" : "A lovely home",
 "city" : "Bratislava",
 "zip" : "1111",
 "street" : "Shitgade",
 "housenr" : "123",
 "imgURL" : "https://i.ytimg.com/vi/Xx6t0gmQ_Tw/maxresdefault.jpg",
 "rentable" : false,
 "rating" : 1,
 "idUser" : 1,
 "latitude" : "",
 "longitude" : ""
},
{
 "id" : "1",
 "description" : "A lovely home",
 "city" : "Bratislava",
 "zip" : "1111",
 "street" : "Shitgade",
 "housenr" : "123",
 "imgURL" : "https://i.ytimg.com/vi/Xx6t0gmQ_Tw/maxresdefault.jpg",
 "rentable" : false,
 "rating" : 4,
 "idUser" : 1,
 "latitude" : "",
 "longitude" : ""
},
{
 "id" : "1",
 "description" : "A lovely home",
 "city" : "Bratislava",
 "zip" : "1111",
 "street" : "Shitgade",
 "housenr" : "123",
 "imgURL" : "https://i.ytimg.com/vi/Xx6t0gmQ_Tw/maxresdefault.jpg",
 "rentable" : false,
 "rating" : 4,
 "idUser" : 1,
 "latitude" : "",
 "longitude" : ""
},
{
 "id" : "1",
 "description" : "A lovely home",
 "city" : "Bratislava",
 "zip" : "1111",
 "street" : "Shitgade",
 "housenr" : "123",
 "imgURL" : "https://i.ytimg.com/vi/Xx6t0gmQ_Tw/maxresdefault.jpg",
 "rentable" : false,
 "rating" : 4,
 "idUser" : 1,
 "latitude" : "",
 "longitude" : ""
},
{
 "id" : "1",
 "description" : "A lovely home",
 "city" : "Bratislava",
 "zip" : "1111",
 "street" : "Shitgade",
 "housenr" : "123",
 "imgURL" : "https://i.ytimg.com/vi/Xx6t0gmQ_Tw/maxresdefault.jpg",
 "rentable" : false,
 "rating" : 4,
 "idUser" : 1,
 "latitude" : "",
 "longitude" : ""
},
{
 "id" : "1",
 "description" : "A lovely home",
 "city" : "Bratislava",
 "zip" : "1111",
 "street" : "Shitgade",
 "housenr" : "123",
 "imgURL" : "https://i.ytimg.com/vi/Xx6t0gmQ_Tw/maxresdefault.jpg",
 "rentable" : false,
 "rating" : 4,
 "idUser" : 1,
 "latitude" : "",
 "longitude" : ""
},
{
 "id" : "1",
 "description" : "A lovely home",
 "city" : "Bratislava",
 "zip" : "1111",
 "street" : "Shitgade",
 "housenr" : "123",
 "imgURL" : "https://i.ytimg.com/vi/Xx6t0gmQ_Tw/maxresdefault.jpg",
 "rentable" : false,
 "rating" : 4,
 "idUser" : 1,
 "latitude" : "",
 "longitude" : ""
},
{
 "id" : "1",
 "description" : "A lovely home",
 "city" : "Bratislava",
 "zip" : "1111",
 "street" : "Shitgade",
 "housenr" : "123",
 "imgURL" : "https://i.ytimg.com/vi/Xx6t0gmQ_Tw/maxresdefault.jpg",
 "rentable" : false,
 "rating" : 4,
 "idUser" : 1,
 "latitude" : "",
 "longitude" : ""
},
{
 "id" : "1",
 "description" : "A lovely home",
 "city" : "Bratislava",
 "zip" : "1111",
 "street" : "Shitgade",
 "housenr" : "123",
 "imgURL" : "https://i.ytimg.com/vi/Xx6t0gmQ_Tw/maxresdefault.jpg",
 "rentable" : false,
 "rating" : 4,
 "idUser" : 1,
 "latitude" : "",
 "longitude" : ""
},
{
 "id" : "1",
 "description" : "A lovely home",
 "city" : "Bratislava",
 "zip" : "1111",
 "street" : "Shitgade",
 "housenr" : "123",
 "imgURL" : "https://i.ytimg.com/vi/Xx6t0gmQ_Tw/maxresdefault.jpg",
 "rentable" : false,
 "rating" : 4,
 "idUser" : 1,
 "latitude" : "",
 "longitude" : ""
},
{
 "id" : "1",
 "description" : "A lovely home",
 "city" : "Bratislava",
 "zip" : "1111",
 "street" : "Shitgade",
 "housenr" : "123",
 "imgURL" : "https://i.ytimg.com/vi/Xx6t0gmQ_Tw/maxresdefault.jpg",
 "rentable" : false,
 "rating" : 4,
 "idUser" : 1,
 "latitude" : "",
 "longitude" : ""
},
{
 "id" : "1",
 "description" : "A lovely home",
 "city" : "Bratislava",
 "zip" : "1111",
 "street" : "Shitgade",
 "housenr" : "123",
 "imgURL" : "https://i.ytimg.com/vi/Xx6t0gmQ_Tw/maxresdefault.jpg",
 "rentable" : false,
 "rating" : 5,
 "idUser" : 1,
 "latitude" : "",
 "longitude" : ""
},
{
 "id" : "1",
 "description" : "A lovely home",
 "city" : "Bratislava",
 "zip" : "1111",
 "street" : "Shitgade",
 "housenr" : "123",
 "imgURL" : "https://i.ytimg.com/vi/Xx6t0gmQ_Tw/maxresdefault.jpg",
 "rentable" : false,
 "rating" : 2,
 "idUser" : 1,
 "latitude" : "",
 "longitude" : ""
},
{
 "id" : "1",
 "description" : "A lovely home",
 "city" : "Bratislava",
 "zip" : "1111",
 "street" : "Shitgade",
 "housenr" : "123",
 "imgURL" : "https://i.ytimg.com/vi/Xx6t0gmQ_Tw/maxresdefault.jpg",
 "rentable" : false,
 "rating" : 4,
 "idUser" : 1,
 "latitude" : "",
 "longitude" : ""
}
  ]